NORAD_CAT_ID,OBJECT_NAME,OBJECT_TYPE,EPOCH,MEAN_MOTION,ECCENTRICITY,INCLINATION,RA_OF_ASC_NODE,ARG_OF_PERICENTER,MEAN_ANOMALY,BSTAR,MEAN_MOTION_DOT,MEAN_MOTION_DDOT,TLE_LINE0,TLE_LINE1,TLE_LINE2,SEMIMAJOR_AXIS,PERIOD,APOGEE,PERIGEE,DECAYED
53414.0,STARLINK-4304,PAYLOAD,2024-04-19 20:44:44,15.08834104,0.0001542,53.2187,326.3758,79.9029,280.2137,0.00028716,4.284e-05,0.0,0 STARLINK-4304,1 53414U 22097AC  24110.86440505  .00004284  00000-0  28716-3 0  9992,2 53414  53.2187 326.3758 0001542  79.9029 280.2137 15.08834104 94175,6917.898,95.438,540.83,538.697,0.0
53414.0,STARLINK-4304,PAYLOAD,2024-04-20 14:13:59,15.08842782,0.0001588,53.2167,323.1075,70.7231,289.3933,8.7453e-06,-1.49e-06,0.0,0 STARLINK-4304,1 53414U 22097AC  24111.59304934 -.00000149  00000-0  87453-5 0  9990,2 53414  53.2167 323.1075 0001588  70.7231 289.3933 15.08842782 94764,6917.872,95.437,540.835,538.638,0.0
53414.0,STARLINK-4304,PAYLOAD,2024-04-20 20:35:32,15.08837706,0.0001337,53.2199,321.9066,97.9231,262.1913,-7.2791e-05,-1.446e-05,0.0,0 STARLINK-4304,1 53414U 22097AC  24111.85801421 -.00001446  00000-0 -72791-4 0  9992,2 53414  53.2199 321.9066 0001337  97.9231 262.1913 15.08837706 94327,6917.887,95.438,540.677,538.827,0.0
53414.0,STARLINK-4304,PAYLOAD,2024-04-21 14:04:46,15.08842038,0.0001576,53.2188,318.6355,127.5749,232.5387,-4.899e-05,-1.068e-05,0.0,0 STARLINK-4304,1 53414U 22097AC  24112.58665319 -.00001068  00000-0 -48990-4 0  9991,2 53414  53.2188 318.6355 0001576 127.5749 232.5387 15.08842038 94913,6917.874,95.437,540.829,538.649,0.0
53414.0,STARLINK-4304,PAYLOAD,2024-04-21 20:26:19,15.08847854,0.0001451,53.2177,317.4507,102.3605,257.755,0.00016443,2.33e-05,0.0,0 STARLINK-4304,1 53414U 22097AC  24112.85160908  .00002330  00000-0  16443-3 0  9993,2 53414  53.2177 317.4507 0001451 102.3605 257.7550 15.08847854 94474,6917.856,95.437,540.725,538.718,0.0
53414.0,STARLINK-4304,PAYLOAD,2024-04-22 20:17:07,15.08814101,0.0001309,53.2171,312.9908,90.2248,269.8894,-0.0001093,-2.026e-05,0.0,0 STARLINK-4304,1 53414U 22097AC  24113.84523043 -.00002026  00000-0 -10930-3 0  9995,2 53414  53.2171 312.9908 0001309  90.2248 269.8894 15.08814101 94624,6917.96,95.439,540.73,538.919,0.0
53414.0,STARLINK-4304,PAYLOAD,2024-04-23 12:10:58,15.08836381,0.0001521,53.2176,310.0286,68.7582,291.3573,-6.333e-05,-1.296e-05,0.0,0 STARLINK-4304,1 53414U 22097AC  24114.50762576 -.00001296  00000-0 -63330-4 0  9996,2 53414  53.2176 310.0286 0001521  68.7582 291.3573 15.08836381 94723,6917.891,95.438,540.809,538.704,0.0
53414.0,STARLINK-4304,PAYLOAD,2024-04-23 20:07:53,15.08858596,0.0001545,53.2179,308.5366,110.6573,249.4585,0.00051996,8.001e-05,0.0,0 STARLINK-4304,1 53414U 22097AC  24114.83881624  .00008001  00000-0  51996-3 0  9991,2 53414  53.2179 308.5366 0001545 110.6573 249.4585 15.08858596 94774,6917.824,95.436,540.757,538.62,0.0
53414.0,STARLINK-4304,PAYLOAD,2024-04-24 12:01:44,15.08854276,0.0001691,53.2179,305.5633,118.5201,241.5961,0.00065273,0.00010119,0.0,0 STARLINK-4304,1 53414U 22097AC  24115.50121396  .00010119  00000-0  65273-3 0  9995,2 53414  53.2179 305.5633 0001691 118.5201 241.5961 15.08854276 94878,6917.837,95.437,540.872,538.532,0.0
53414.0,STARLINK-4304,PAYLOAD,2024-04-24 19:58:40,15.08843448,0.0001335,53.2166,304.071,135.4009,224.7091,0.0003586,5.424e-05,0.0,0 STARLINK-4304,1 53414U 22097AC  24115.83241498  .00005424  00000-0  35860-3 0  9999,2 53414  53.2166 304.0710 0001335 135.4009 224.7091 15.08843448 94925,6917.87,95.437,540.658,538.811,0.0
53414.0,STARLINK-4304,PAYLOAD,2024-04-25 19:49:27,15.0885101,0.0001206,53.218,299.6111,108.5314,251.581,-0.00013362,-2.414e-05,0.0,0 STARLINK-4304,1 53414U 22097AC  24116.82601828 -.00002414  00000-0 -13362-3 0  9997,2 53414  53.2180 299.6111 0001206 108.5314 251.5810 15.08851010 95070,6917.847,95.437,540.546,538.877,0.0
53414.0,STARLINK-4304,PAYLOAD,2024-04-25 21:24:50,15.08854619,0.0001192,53.218,299.3133,111.9725,248.1394,-0.00011395,-2.102e-05,0.0,0 STARLINK-4304,1 53414U 22097AC  24116.89225448 -.00002102  00000-0 -11395-3 0  9992,2 53414  53.2180 299.3133 0001192 111.9725 248.1394 15.08854619 95560,6917.836,95.437,540.525,538.876,0.0
53414.0,STARLINK-4304,PAYLOAD,2024-04-26 11:43:19,15.08838627,0.0001278,53.2184,296.6411,108.4089,251.7043,2.0196e-05,3.4e-07,0.0,0 STARLINK-4304,1 53414U 22097AC  24117.48841727  .00000034  00000-0  20196-4 0  9992,2 53414  53.2184 296.6411 0001278 108.4089 251.7043 15.08838627 95654,6917.885,95.438,540.634,538.865,0.0
53414.0,STARLINK-4304,PAYLOAD,2024-04-26 18:04:51,15.08838562,0.0001003,53.2186,295.4532,82.5145,277.5961,7.7997e-05,9.54e-06,0.0,0 STARLINK-4304,1 53414U 22097AC  24117.75337632  .00000954  00000-0  77997-4 0  9999,2 53414  53.2186 295.4532 0001003  82.5145 277.5961 15.08838562 95695,6917.885,95.438,540.444,539.056,0.0
53414.0,STARLINK-4304,PAYLOAD,2024-04-27 05:12:32,15.08851856,0.0001436,53.2184,293.3699,90.1392,269.9765,0.00018183,2.608e-05,0.0,0 STARLINK-4304,1 53414U 22097AC  24118.21704450  .00002608  00000-0  18183-3 0  9996,2 53414  53.2184 293.3699 0001436  90.1392 269.9765 15.08851856 95286,6917.844,95.437,540.703,538.716,0.0
53414.0,STARLINK-4304,PAYLOAD,2024-04-27 11:34:07,15.08825403,0.0001078,53.2177,292.1819,106.5407,253.5704,-9.2893e-05,-1.765e-05,0.0,0 STARLINK-4304,1 53414U 22097AC  24118.48202763 -.00001765  00000-0 -92893-4 0  9991,2 53414  53.2177 292.1819 0001078 106.5407 253.5704 15.08825403 95326,6917.925,95.438,540.536,539.044,0.0
53414.0,STARLINK-4304,PAYLOAD,2024-04-27 21:06:24,15.08840058,0.0001118,53.2173,290.3966,109.0175,251.0939,3.3073e-05,2.39e-06,0.0,0 STARLINK-4304,1 53414U 22097AC  24118.87945550  .00000239  00000-0  33073-4 0  9990,2 53414  53.2173 290.3966 0001118 109.0175 251.0939 15.08840058 95382,6917.88,95.438,540.519,538.972,0.0
53414.0,STARLINK-4304,PAYLOAD,2024-04-28 14:35:39,15.08840239,0.0001528,53.2199,287.125,104.3223,255.7939,-6.0075e-05,-1.244e-05,0.0,0 STARLINK-4304,1 53414U 22097AC  24119.60809994 -.00001244  00000-0 -60075-4 0  9994,2 53414  53.2199 287.1250 0001528 104.3223 255.7939 15.08840239 95974,6917.88,95.438,540.802,538.688,0.0
53414.0,STARLINK-4304,PAYLOAD,2024-04-28 20:57:12,15.08835775,0.0001471,53.2172,285.9373,89.6886,270.4275,-1.6435e-05,-5.49e-06,0.0,0 STARLINK-4304,1 53414U 22097AC  24119.87306196 -.00000549  00000-0 -16435-4 0  9997,2 53414  53.2172 285.9373 0001471  89.6886 270.4275 15.08835775 95532,6917.893,95.438,540.776,538.741,0.0
53414.0,STARLINK-4304,PAYLOAD,2024-04-29 14:26:26,15.08829578,0.000135,53.2168,282.6657,93.0295,267.0851,0.00014228,1.977e-05,0.0,0 STARLINK-4304,1 53414U 22097AC  24120.60170065  .00001977  00000-0  14228-3 0  9995,2 53414  53.2168 282.6657 0001350  93.0295 267.0851 15.08829578 96127,6917.912,95.438,540.711,538.843,0.0
53414.0,STARLINK-4304,PAYLOAD,2024-04-29 20:47:59,15.08836187,0.0001231,53.217,281.4761,91.3365,268.7768,8.6177e-05,1.084e-05,0.0,0 STARLINK-4304,1 53414U 22097AC  24120.86665974  .00001084  00000-0  86177-4 0  9993,2 53414  53.2170 281.4761 0001231  91.3365 268.7768 15.08836187 96163,6917.892,95.438,540.609,538.905,0.0
53414.0,STARLINK-4304,PAYLOAD,2024-04-30 03:09:31,15.08846204,0.0001256,53.2181,280.287,91.1833,268.9303,9.7142e-05,1.259e-05,0.0,0 STARLINK-4304,1 53414U 22097AC  24121.13161284  .00001259  00000-0  97142-4 0  9997,2 53414  53.2181 280.2870 0001256  91.1833 268.9303 15.08846204 95727,6917.861,95.437,540.595,538.858,0.0
53414.0,STARLINK-4304,PAYLOAD,2024-04-30 14:17:14,15.08829717,0.0001438,53.2196,278.2086,108.8799,251.2349,7.0903e-05,8.4e-06,0.0,0 STARLINK-4304,1 53414U 22097AC  24121.59530604  .00000840  00000-0  70903-4 0  9994,2 53414  53.2196 278.2086 0001438 108.8799 251.2349 15.08829717 96274,6917.912,95.438,540.772,538.782,0.0
53414.0,STARLINK-4304,PAYLOAD,2024-04-30 17:28:00,15.08831365,0.0001196,53.2199,277.6152,99.1314,260.9814,4.6138e-05,4.46e-06,0.0,0 STARLINK-4304,1 53414U 22097AC  24121.72778649  .00000446  00000-0  46138-4 0  9997,2 53414  53.2199 277.6152 0001196  99.1314 260.9814 15.08831365 95815,6917.907,95.438,540.599,538.944,0.0
53414.0,STARLINK-4304,PAYLOAD,2024-05-01 03:00:18,15.08845377,0.0001422,53.2207,275.8314,102.7389,257.3763,1.3843e-05,-6.8e-07,0.0,0 STARLINK-4304,1 53414U 22097AC  24122.12521836 -.00000068  00000-0  13843-4 0  9994,2 53414  53.2207 275.8314 0001422 102.7389 257.3763 15.08845377 95877,6917.864,95.437,540.713,538.745,0.0
53414.0,STARLINK-4304,PAYLOAD,2024-05-01 09:21:51,15.08843928,0.000125,53.2206,274.6411,91.4979,268.6156,0.00012657,1.727e-05,0.0,0 STARLINK-4304,1 53414U 22097AC  24122.39017671  .00001727  00000-0  12657-3 0  9993,2 53414  53.2206 274.6411 0001250  91.4979 268.6156 15.08843928 96398,6917.868,95.437,540.598,538.869,0.0
53414.0,STARLINK-4304,PAYLOAD,2024-05-01 17:18:47,15.08843219,0.0001269,53.2189,273.1523,98.1614,261.9522,5.7098e-05,6.21e-06,0.0,0 STARLINK-4304,1 53414U 22097AC  24122.72137846  .00000621  00000-0  57098-4 0  9998,2 53414  53.2189 273.1523 0001269  98.1614 261.9522 15.08843219 96448,6917.871,95.437,540.613,538.858,0.0
53414.0,STARLINK-4304,PAYLOAD,2024-05-02 13:58:49,15.08820516,0.0001197,53.2189,269.2868,99.7659,260.3468,-3.3251e-05,-8.17e-06,0.0,0 STARLINK-4304,1 53414U 22097AC  24123.58251476 -.00000817  00000-0 -33251-4 0  9993,2 53414  53.2189 269.2868 0001197  99.7659 260.3468 15.08820516 96573,6917.94,95.439,540.633,538.977,0.0
53414.0,STARLINK-4304,PAYLOAD,2024-05-02 18:44:57,15.08836326,0.0001183,53.2179,268.3903,90.7956,269.3172,-2.0746e-05,-6.18e-06,0.0,0 STARLINK-4304,1 53414U 22097AC  24123.78122581 -.00000618  00000-0 -20746-4 0  9993,2 53414  53.2179 268.3903 0001183  90.7956 269.3172 15.08836326 96126,6917.892,95.438,540.575,538.938,0.0
53414.0,STARLINK-4304,PAYLOAD,2024-05-03 02:41:53,15.08841232,0.0001172,53.217,266.905,91.2741,268.8385,7.1357e-05,8.48e-06,0.0,0 STARLINK-4304,1 53414U 22097AC  24124.11241997  .00000848  00000-0  71357-4 0  9991,2 53414  53.2170 266.9050 0001172  91.2741 268.8385 15.08841232 96177,6917.877,95.437,540.552,538.931,0.0
